ORBCOMM FM06            
1 25118U 97084G   26179.52366277  .00001145  00000+0  34708-3 0  9993
2 25118  45.0146 358.1371 0000078 105.9389 284.0869 14.47589370496034
ORBCOMM FM04            
1 25159U 98007C   26179.61189114  .00000723  00000+0  29271-3 0  9997
2 25159 107.9626 192.9333 0041654 305.1577  54.5664 14.35760310478237
ORBCOMM FM19            
1 25415U 98046C   26179.31547558  .00000688  00000+0  26393-3 0  9994
2 25415  44.9920 190.6634 0004266 328.4652  45.8561 14.39511876458386
ORBCOMM FM20            
1 25416U 98046D   26179.47551970  .00000463  00000+0  19800-3 0  9991
2 25416  44.9921 197.9501 0002449 287.9894  72.0687 14.38078501458416
ORBCOMM FM27            
1 25481U 98053G   26179.57207450  .00000787  00000+0  29734-3 0  9999
2 25481  45.0059 281.2797 0001972 235.6733 124.3930 14.39161419451875
ORBCOMM FM32            
1 25982U 99065C   26179.55193650  .00000633  00000+0  25844-3 0  9991
2 25982  45.0144 119.4449 0004329 102.3246 257.8087 14.37144819388721
ORBCOMM FM109           
1 40086U 14040A   26179.33021940  .00000447  00000+0  13084-3 0  9997
2 40086  47.0041  38.8033 0001966 276.2708  83.7954 14.58857202635973
ORBCOMM FM110           
1 41182U 15081D   26179.60948496  .00000623  00000+0  16798-3 0  9996
2 41182  47.0030 307.4350 0002700 144.0913 216.0155 14.58896710559294
ORBCOMM FM118           
1 41183U 15081E   26179.64377700  .00000393  00000+0  11924-3 0  9995
2 41183  47.0051 307.6064 0002283  94.9127 265.2020 14.58889367559408
ORBCOMM FM112           
1 41184U 15081F   26179.51114840  .00000323  00000+0  10441-3 0  9992
2 41184  46.9973 216.6987 0004109 262.3514  97.6905 14.58915585560608
ORBCOMM FM113           
1 41185U 15081G   26179.48814361  .00000275  00000+0  94312-4 0  9990
2 41185  46.9990 217.1892 0002612 263.3683  96.6906 14.58867726560584
ORBCOMM FM108           
1 41187U 15081J   26179.58738906  .00000514  00000+0  14483-3 0  9999
2 41187  47.0044 128.2965 0003200 263.8893  96.1628 14.58887238561748
ORBCOMM FM117           
1 41188U 15081K   26179.00509265  .00000351  00000+0  11048-3 0  9994
2 41188  47.0003 129.6801 0003678 265.3235  94.7230 14.58873535561708
ORBCOMM FM116           
1 41189U 15081L   26179.53327300  .00000342  00000+0  10840-3 0  9990
2 41189  47.0008 216.9738 0000782 170.6855 189.4045 14.58894970560590
